{
  "type": "FeatureCollection",
  "features": [
    {
      "type": "Feature",
      "properties": {
        "norad_id": 34121,
        "name": "COSMOS 2251 DEB",
        "group": "cosmos-2251-debris",
        "lat": 63.519692100472774,
        "lon": 127.41502434945055,
        "alt_km": 1029.4342477833025,
        "timestamp": "2025-12-15T14:57:58.205722+00:00",
        "meta_object_name": "COSMOS 2251 DEB",
        "meta_object_id": "1993-036KS",
        "meta_epoch": "2025-12-14T23:42:43.179264",
        "meta_mean_motion": 13.91938284,
        "meta_eccentricity": 0.02404241,
        "meta_inclination": 73.9929,
        "meta_ra_of_asc_node": 93.3169,
        "meta_arg_of_pericenter": 298.2874,
        "meta_mean_anomaly": 184.5864,
        "meta_ephemeris_type": 0,
        "meta_classification_type": "U",
        "meta_norad_cat_id": 34121,
        "meta_element_set_no": 999,
        "meta_rev_at_epoch": 85156,
        "meta_bstar": 0.0010580418,
        "meta_mean_motion_dot": 1.683e-05,
        "meta_mean_motion_ddot": 0,
        "tle_line1": "1 34121U 93036KS  25348.98799976  .00001683  00000+0  10580-2 0  9991",
        "tle_line2": "2 34121  73.9929  93.3169 0240424 298.2874 184.5864 13.91938284851568"
      },
      "geometry": {
        "type": "Point",
        "coordinates": [
          127.41502434945055,
          63.519692100472774
        ]
      }
    },
    {
      "type": "Feature",
      "properties": {
        "norad_id": 34122,
        "name": "COSMOS 2251 DEB",
        "group": "cosmos-2251-debris",
        "lat": -4.761963994066471,
        "lon": 111.71968012183821,
        "alt_km": 622.1997222170849,
        "timestamp": "2025-12-15T14:57:58.205731+00:00",
        "meta_object_name": "COSMOS 2251 DEB",
        "meta_object_id": "1993-036KT",
        "meta_epoch": "2025-12-14T19:53:53.985984",
        "meta_mean_motion": 14.65083374,
        "meta_eccentricity": 0.0084426,
        "meta_inclination": 74.0356,
        "meta_ra_of_asc_node": 114.6141,
        "meta_arg_of_pericenter": 10.8929,
        "meta_mean_anomaly": 115.8272,
        "meta_ephemeris_type": 0,
        "meta_classification_type": "U",
        "meta_norad_cat_id": 34122,
        "meta_element_set_no": 999,
        "meta_rev_at_epoch": 88715,
        "meta_bstar": 0.00090128262,
        "meta_mean_motion_dot": 5.07e-05,
        "meta_mean_motion_ddot": 0,
        "tle_line1": "1 34122U 93036KT  25348.82909706  .00005070  00000+0  90128-3 0  9990",
        "tle_line2": "2 34122  74.0356 114.6141 0084426  10.8929 115.8272 14.65083374887156"
      },
      "geometry": {
        "type": "Point",
        "coordinates": [
          111.71968012183821,
          -4.761963994066471
        ]
      }
    },
    {
      "type": "Feature",
      "properties": {
        "norad_id": 34127,
        "name": "COSMOS 2251 DEB",
        "group": "cosmos-2251-debris",
        "lat": -71.6243786648578,
        "lon": -19.94753750651785,
        "alt_km": 731.1972655845329,
        "timestamp": "2025-12-15T14:57:58.205740+00:00",
        "meta_object_name": "COSMOS 2251 DEB",
        "meta_object_id": "1993-036KY",
        "meta_epoch": "2025-12-14T14:45:08.008128",
        "meta_mean_motion": 14.31567162,
        "meta_eccentricity": 0.01149659,
        "meta_inclination": 74.1797,
        "meta_ra_of_asc_node": 40.4754,
        "meta_arg_of_pericenter": 240.2031,
        "meta_mean_anomaly": 240.9125,
        "meta_ephemeris_type": 0,
        "meta_classification_type": "U",
        "meta_norad_cat_id": 34127,
        "meta_element_set_no": 999,
        "meta_rev_at_epoch": 86798,
        "meta_bstar": 0.0014812585,
        "meta_mean_motion_dot": 4.214e-05,
        "meta_mean_motion_ddot": 0,
        "tle_line1": "1 34127U 93036KY  25348.61467602  .00004214  00000+0  14813-2 0  9991",
        "tle_line2": "2 34127  74.1797  40.4754 0114965 240.2031 240.9125 14.31567162867983"
      },
      "geometry": {
        "type": "Point",
        "coordinates": [
          -19.94753750651785,
          -71.6243786648578
        ]
      }
    },
    {
      "type": "Feature",
      "properties": {
        "norad_id": 34128,
        "name": "COSMOS 2251 DEB",
        "group": "cosmos-2251-debris",
        "lat": 49.58212114883479,
        "lon": 91.14582868257808,
        "alt_km": 556.563267376363,
        "timestamp": "2025-12-15T14:57:58.205750+00:00",
        "meta_object_name": "COSMOS 2251 DEB",
        "meta_object_id": "1993-036KZ",
        "meta_epoch": "2025-12-14T22:41:08.231424",
        "meta_mean_motion": 15.01264131,
        "meta_eccentricity": 0.00259046,
        "meta_inclination": 73.9992,
        "meta_ra_of_asc_node": 292.2215,
        "meta_arg_of_pericenter": 43.8628,
        "meta_mean_anomaly": 18.7233,
        "meta_ephemeris_type": 0,
        "meta_classification_type": "U",
        "meta_norad_cat_id": 34128,
        "meta_element_set_no": 999,
        "meta_rev_at_epoch": 89200,
        "meta_bstar": 0.0010561226,
        "meta_mean_motion_dot": 0.00013661,
        "meta_mean_motion_ddot": 0,
        "tle_line1": "1 34128U 93036KZ  25348.94523416  .00013661  00000+0  10561-2 0  9996",
        "tle_line2": "2 34128  73.9992 292.2215 0025904  43.8628  18.7233 15.01264131892000"
      },
      "geometry": {
        "type": "Point",
        "coordinates": [
          91.14582868257808,
          49.58212114883479
        ]
      }
    },
    {
      "type": "Feature",
      "properties": {
        "norad_id": 34129,
        "name": "COSMOS 2251 DEB",
        "group": "cosmos-2251-debris",
        "lat": 37.36938827790861,
        "lon": 141.25553548264142,
        "alt_km": 638.0082681677513,
        "timestamp": "2025-12-15T14:57:58.205759+00:00",
        "meta_object_name": "COSMOS 2251 DEB",
        "meta_object_id": "1993-036LA",
        "meta_epoch": "2025-12-14T17:11:00.926880",
        "meta_mean_motion": 14.75780109,
        "meta_eccentricity": 0.0032979,
        "meta_inclination": 74.0353,
        "meta_ra_of_asc_node": 335.6592,
        "meta_arg_of_pericenter": 56.5165,
        "meta_mean_anomaly": 303.9153,
        "meta_ephemeris_type": 0,
        "meta_classification_type": "U",
        "meta_norad_cat_id": 34129,
        "meta_element_set_no": 999,
        "meta_rev_at_epoch": 61327,
        "meta_bstar": 0.0011927469,
        "meta_mean_motion_dot": 8.22e-05,
        "meta_mean_motion_ddot": 0,
        "tle_line1": "1 34129U 93036LA  25348.71598295  .00008220  00000+0  11927-2 0  9991",
        "tle_line2": "2 34129  74.0353 335.6592 0032979  56.5165 303.9153 14.75780109613279"
      },
      "geometry": {
        "type": "Point",
        "coordinates": [
          141.25553548264142,
          37.36938827790861
        ]
      }
    },
    {
      "type": "Feature",
      "properties": {
        "norad_id": 34136,
        "name": "COSMOS 2251 DEB",
        "group": "cosmos-2251-debris",
        "lat": -19.555180444639692,
        "lon": 31.104234715220183,
        "alt_km": 693.8101934478409,
        "timestamp": "2025-12-15T14:57:58.205768+00:00",
        "meta_object_name": "COSMOS 2251 DEB",
        "meta_object_id": "1993-036LH",
        "meta_epoch": "2025-12-14T22:00:15.478848",
        "meta_mean_motion": 14.80099057,
        "meta_eccentricity": 0.00856101,
        "meta_inclination": 74.0214,
        "meta_ra_of_asc_node": 38.3389,
        "meta_arg_of_pericenter": 160.733,
        "meta_mean_anomaly": 14.7984,
        "meta_ephemeris_type": 0,
        "meta_classification_type": "U",
        "meta_norad_cat_id": 34136,
        "meta_element_set_no": 999,
        "meta_rev_at_epoch": 90042,
        "meta_bstar": 0.00031624831,
        "meta_mean_motion_dot": 2.516e-05,
        "meta_mean_motion_ddot": 0,
        "tle_line1": "1 34136U 93036LH  25348.91684582  .00002516  00000+0  31625-3 0  9996",
        "tle_line2": "2 34136  74.0214  38.3389 0085610 160.7330  14.7984 14.80099057900422"
      },
      "geometry": {
        "type": "Point",
        "coordinates": [
          31.104234715220183,
          -19.555180444639692
        ]
      }
    },
    {
      "type": "Feature",
      "properties": {
        "norad_id": 34139,
        "name": "COSMOS 2251 DEB",
        "group": "cosmos-2251-debris",
        "lat": -21.829421668088635,
        "lon": 75.15332727374171,
        "alt_km": 714.3581080293998,
        "timestamp": "2025-12-15T14:57:58.205778+00:00",
        "meta_object_name": "COSMOS 2251 DEB",
        "meta_object_id": "1993-036LL",
        "meta_epoch": "2025-12-14T20:14:38.402592",
        "meta_mean_motion": 14.59099559,
        "meta_eccentricity": 0.00425166,
        "meta_inclination": 74.0308,
        "meta_ra_of_asc_node": 250.0531,
        "meta_arg_of_pericenter": 320.7962,
        "meta_mean_anomaly": 106.3313,
        "meta_ephemeris_type": 0,
        "meta_classification_type": "U",
        "meta_norad_cat_id": 34139,
        "meta_element_set_no": 999,
        "meta_rev_at_epoch": 88180,
        "meta_bstar": 0.00089295276,
        "meta_mean_motion_dot": 4.227e-05,
        "meta_mean_motion_ddot": 0,
        "tle_line1": "1 34139U 93036LL  25348.84350003  .00004227  00000+0  89295-3 0  9996",
        "tle_line2": "2 34139  74.0308 250.0531 0042516 320.7962 106.3313 14.59099559881805"
      },
      "geometry": {
        "type": "Point",
        "coordinates": [
          75.15332727374171,
          -21.829421668088635
        ]
      }
    }
  ]
}